[{"OBJECT_NAME":"STARLINK-35826","OBJECT_ID":"2025-254AD","EPOCH":"2026-03-28T10:05:44.009664","MEAN_MOTION":15.30218663,"ECCENTRICITY":0.0001405,"INCLINATION":53.1608,"RA_OF_ASC_NODE":142.5493,"ARG_OF_PERICENTER":87.0776,"MEAN_ANOMALY":273.0386,"EPHEMERIS_TYPE":0,"CLASSIFICATION_TYPE":"U","NORAD_CAT_ID":66375,"ELEMENT_SET_NO":999,"REV_AT_EPOCH":2188,"BSTAR":0.00092596,"MEAN_MOTION_DOT":0.00027181,"MEAN_MOTION_DDOT":0},{"OBJECT_NAME":"STARLINK-35139","OBJECT_ID":"2025-257A","EPOCH":"2026-03-28T11:46:37.279200","MEAN_MOTION":15.30164994,"ECCENTRICITY":0.0001379,"INCLINATION":53.1586,"RA_OF_ASC_NODE":129.5852,"ARG_OF_PERICENTER":70.5467,"MEAN_ANOMALY":289.5683,"EPHEMERIS_TYPE":0,"CLASSIFICATION_TYPE":"U","NORAD_CAT_ID":66380,"ELEMENT_SET_NO":999,"REV_AT_EPOCH":2255,"BSTAR":0.0008146,"MEAN_MOTION_DOT":0.00023818,"MEAN_MOTION_DDOT":0},{"OBJECT_NAME":"STARLINK-35158","OBJECT_ID":"2025-257B","EPOCH":"2026-03-28T09:42:19.410048","MEAN_MOTION":15.30219346,"ECCENTRICITY":0.0001569,"INCLINATION":53.1575,"RA_OF_ASC_NODE":130.465,"ARG_OF_PERICENTER":82.3314,"MEAN_ANOMALY":277.7865,"EPHEMERIS_TYPE":0,"CLASSIFICATION_TYPE":"U","NORAD_CAT_ID":66381,"ELEMENT_SET_NO":999,"REV_AT_EPOCH":2259,"BSTAR":0.0002615,"MEAN_MOTION_DOT":7.398e-5,"MEAN_MOTION_DDOT":0},{"OBJECT_NAME":"STARLINK-35639","OBJECT_ID":"2025-257C","EPOCH":"2026-03-28T12:45:52.321248","MEAN_MOTION":15.30204695,"ECCENTRICITY":0.0001114,"INCLINATION":53.1577,"RA_OF_ASC_NODE":129.8392,"ARG_OF_PERICENTER":86.6478,"MEAN_ANOMALY":273.465,"EPHEMERIS_TYPE":0,"CLASSIFICATION_TYPE":"U","NORAD_CAT_ID":66382,"ELEMENT_SET_NO":999,"REV_AT_EPOCH":2261,"BSTAR":0.00065868,"MEAN_MOTION_DOT":0.00019202,"MEAN_MOTION_DDOT":0},{"OBJECT_NAME":"STARLINK-35690","OBJECT_ID":"2025-257D","EPOCH":"2026-03-28T10:01:55.001280","MEAN_MOTION":15.3019982,"ECCENTRICITY":0.0001168,"INCLINATION":53.1577,"RA_OF_ASC_NODE":129.8397,"ARG_OF_PERICENTER":79.7029,"MEAN_ANOMALY":280.4104,"EPHEMERIS_TYPE":0,"CLASSIFICATION_TYPE":"U","NORAD_CAT_ID":66383,"ELEMENT_SET_NO":999,"REV_AT_EPOCH":2260,"BSTAR":0.00037228,"MEAN_MOTION_DOT":0.00010683,"MEAN_MOTION_DDOT":0},{"OBJECT_NAME":"STARLINK-35662","OBJECT_ID":"2025-257E","EPOCH":"2026-03-28T09:58:52.529664","MEAN_MOTION":15.30211265,"ECCENTRICITY":0.0001383,"INCLINATION":53.1586,"RA_OF_ASC_NODE":129.8246,"ARG_OF_PERICENTER":74.7943,"MEAN_ANOMALY":285.3211,"EPHEMERIS_TYPE":0,"CLASSIFICATION_TYPE":"U","NORAD_CAT_ID":66384,"ELEMENT_SET_NO":999,"REV_AT_EPOCH":2260,"BSTAR":0.00072322,"MEAN_MOTION_DOT":0.00021129,"MEAN_MOTION_DDOT":0},{"OBJECT_NAME":"STARLINK-35659","OBJECT_ID":"2025-257F","EPOCH":"2026-03-28T08:32:25.219680","MEAN_MOTION":15.30208649,"ECCENTRICITY":0.000128,"INCLINATION":53.1594,"RA_OF_ASC_NODE":130.1598,"ARG_OF_PERICENTER":99.1575,"MEAN_ANOMALY":260.957,"EPHEMERIS_TYPE":0,"CLASSIFICATION_TYPE":"U","NORAD_CAT_ID":66385,"ELEMENT_SET_NO":999,"REV_AT_EPOCH":2259,"BSTAR":0.00040146,"MEAN_MOTION_DOT":0.00011553,"MEAN_MOTION_DDOT":0},{"OBJECT_NAME":"STARLINK-35651","OBJECT_ID":"2025-257G","EPOCH":"2026-03-28T09:55:50.369952","MEAN_MOTION":15.30198256,"ECCENTRICITY":0.0001251,"INCLINATION":53.1583,"RA_OF_ASC_NODE":129.8143,"ARG_OF_PERICENTER":92.398,"MEAN_ANOMALY":267.7164,"EPHEMERIS_TYPE":0,"CLASSIFICATION_TYPE":"U","NORAD_CAT_ID":66386,"ELEMENT_SET_NO":999,"REV_AT_EPOCH":2260,"BSTAR":0.00049629,"MEAN_MOTION_DOT":0.00014367,"MEAN_MOTION_DDOT":0},{"OBJECT_NAME":"STARLINK-35661","OBJECT_ID":"2025-257H","EPOCH":"2026-03-28T09:52:47.924256","MEAN_MOTION":15.30196749,"ECCENTRICITY":0.0001319,"INCLINATION":53.1588,"RA_OF_ASC_NODE":129.7993,"ARG_OF_PERICENTER":88.5468,"MEAN_ANOMALY":271.5684,"EPHEMERIS_TYPE":0,"CLASSIFICATION_TYPE":"U","NORAD_CAT_ID":66387,"ELEMENT_SET_NO":999,"REV_AT_EPOCH":2260,"BSTAR":0.00088162,"MEAN_MOTION_DOT":0.0002584,"MEAN_MOTION_DDOT":0},{"OBJECT_NAME":"STARLINK-35647","OBJECT_ID":"2025-257J","EPOCH":"2026-03-28T09:51:16.784352","MEAN_MOTION":15.30203673,"ECCENTRICITY":0.0001351,"INCLINATION":53.1582,"RA_OF_ASC_NODE":129.792,"ARG_OF_PERICENTER":89.9631,"MEAN_ANOMALY":270.1525,"EPHEMERIS_TYPE":0,"CLASSIFICATION_TYPE":"U","NORAD_CAT_ID":66388,"ELEMENT_SET_NO":999,"REV_AT_EPOCH":2259,"BSTAR":0.00089528,"MEAN_MOTION_DOT":0.00026253,"MEAN_MOTION_DDOT":0},{"OBJECT_NAME":"STARLINK-35694","OBJECT_ID":"2025-257K","EPOCH":"2026-03-28T09:57:21.307680","MEAN_MOTION":15.30202288,"ECCENTRICITY":0.0001275,"INCLINATION":53.1582,"RA_OF_ASC_NODE":129.816,"ARG_OF_PERICENTER":74.261,"MEAN_ANOMALY":285.8531,"EPHEMERIS_TYPE":0,"CLASSIFICATION_TYPE":"U","NORAD_CAT_ID":66389,"ELEMENT_SET_NO":999,"REV_AT_EPOCH":2260,"BSTAR":0.0010606,"MEAN_MOTION_DOT":0.00031185,"MEAN_MOTION_DDOT":0},{"OBJECT_NAME":"STARLINK-35665","OBJECT_ID":"2025-257L","EPOCH":"2026-03-28T11:48:07.505856","MEAN_MOTION":15.30214722,"ECCENTRICITY":0.0001273,"INCLINATION":53.1585,"RA_OF_ASC_NODE":129.5708,"ARG_OF_PERICENTER":74.261,"MEAN_ANOMALY":285.8531,"EPHEMERIS_TYPE":0,"CLASSIFICATION_TYPE":"U","NORAD_CAT_ID":66390,"ELEMENT_SET_NO":999,"REV_AT_EPOCH":2271,"BSTAR":0.00083901,"MEAN_MOTION_DOT":0.00024583,"MEAN_MOTION_DDOT":0},{"OBJECT_NAME":"STARLINK-35656","OBJECT_ID":"2025-257M","EPOCH":"2026-03-28T10:28:40.292544","MEAN_MOTION":15.3019922,"ECCENTRICITY":0.0001195,"INCLINATION":53.1597,"RA_OF_ASC_NODE":132.7808,"ARG_OF_PERICENTER":84.9099,"MEAN_ANOMALY":275.2038,"EPHEMERIS_TYPE":0,"CLASSIFICATION_TYPE":"U","NORAD_CAT_ID":66391,"ELEMENT_SET_NO":999,"REV_AT_EPOCH":2266,"BSTAR":0.00081061,"MEAN_MOTION_DOT":0.00023725,"MEAN_MOTION_DDOT":0},{"OBJECT_NAME":"STARLINK-35671","OBJECT_ID":"2025-257N","EPOCH":"2026-03-28T09:46:43.127040","MEAN_MOTION":15.30214415,"ECCENTRICITY":0.0001112,"INCLINATION":53.1579,"RA_OF_ASC_NODE":129.771,"ARG_OF_PERICENTER":98.8267,"MEAN_ANOMALY":261.286,"EPHEMERIS_TYPE":0,"CLASSIFICATION_TYPE":"U","NORAD_CAT_ID":66392,"ELEMENT_SET_NO":999,"REV_AT_EPOCH":2260,"BSTAR":0.00017056,"MEAN_MOTION_DOT":4.698e-5,"MEAN_MOTION_DDOT":0},{"OBJECT_NAME":"STARLINK-35652","OBJECT_ID":"2025-257P","EPOCH":"2026-03-28T12:47:23.385120","MEAN_MOTION":15.30208031,"ECCENTRICITY":0.0001196,"INCLINATION":53.1585,"RA_OF_ASC_NODE":129.8422,"ARG_OF_PERICENTER":87.9861,"MEAN_ANOMALY":272.1276,"EPHEMERIS_TYPE":0,"CLASSIFICATION_TYPE":"U","NORAD_CAT_ID":66393,"ELEMENT_SET_NO":999,"REV_AT_EPOCH":2261,"BSTAR":0.00096075,"MEAN_MOTION_DOT":0.00028211,"MEAN_MOTION_DDOT":0},{"OBJECT_NAME":"STARLINK-35672","OBJECT_ID":"2025-257Q","EPOCH":"2026-03-28T12:13:57.544320","MEAN_MOTION":15.30205729,"ECCENTRICITY":0.0001166,"INCLINATION":53.1607,"RA_OF_ASC_NODE":129.6964,"ARG_OF_PERICENTER":65.2102,"MEAN_ANOMALY":294.902,"EPHEMERIS_TYPE":0,"CLASSIFICATION_TYPE":"U","NORAD_CAT_ID":66394,"ELEMENT_SET_NO":999,"REV_AT_EPOCH":2261,"BSTAR":0.0008344,"MEAN_MOTION_DOT":0.00024439,"MEAN_MOTION_DDOT":0},{"OBJECT_NAME":"STARLINK-35681","OBJECT_ID":"2025-257R","EPOCH":"2026-03-28T10:11:03.733728","MEAN_MOTION":15.30210261,"ECCENTRICITY":0.0001062,"INCLINATION":53.1597,"RA_OF_ASC_NODE":129.8733,"ARG_OF_PERICENTER":84.3185,"MEAN_ANOMALY":275.7937,"EPHEMERIS_TYPE":0,"CLASSIFICATION_TYPE":"U","NORAD_CAT_ID":66395,"ELEMENT_SET_NO":999,"REV_AT_EPOCH":2252,"BSTAR":0.0010401,"MEAN_MOTION_DOT":0.00030583,"MEAN_MOTION_DDOT":0},{"OBJECT_NAME":"STARLINK-35669","OBJECT_ID":"2025-257S","EPOCH":"2026-03-28T10:03:26.023680","MEAN_MOTION":15.30207504,"ECCENTRICITY":9.08e-5,"INCLINATION":53.1585,"RA_OF_ASC_NODE":129.8419,"ARG_OF_PERICENTER":94.8559,"MEAN_ANOMALY":265.2545,"EPHEMERIS_TYPE":0,"CLASSIFICATION_TYPE":"U","NORAD_CAT_ID":66396,"ELEMENT_SET_NO":999,"REV_AT_EPOCH":2260,"BSTAR":0.00070837,"MEAN_MOTION_DOT":0.00020684,"MEAN_MOTION_DDOT":0},{"OBJECT_NAME":"STARLINK-35510","OBJECT_ID":"2025-257T","EPOCH":"2026-03-28T09:48:14.283360","MEAN_MOTION":15.30214011,"ECCENTRICITY":0.0001502,"INCLINATION":53.1584,"RA_OF_ASC_NODE":129.7739,"ARG_OF_PERICENTER":81.3261,"MEAN_ANOMALY":278.791,"EPHEMERIS_TYPE":0,"CLASSIFICATION_TYPE":"U","NORAD_CAT_ID":66397,"ELEMENT_SET_NO":999,"REV_AT_EPOCH":2260,"BSTAR":0.00064771,"MEAN_MOTION_DOT":0.00018881,"MEAN_MOTION_DDOT":0},{"OBJECT_NAME":"STARLINK-35642","OBJECT_ID":"2025-257U","EPOCH":"2026-03-28T12:36:45.118944","MEAN_MOTION":15.30208909,"ECCENTRICITY":0.0001243,"INCLINATION":53.1595,"RA_OF_ASC_NODE":129.7928,"ARG_OF_PERICENTER":79.4063,"MEAN_ANOMALY":280.7078,"EPHEMERIS_TYPE":0,"CLASSIFICATION_TYPE":"U","NORAD_CAT_ID":66398,"ELEMENT_SET_NO":999,"REV_AT_EPOCH":2261,"BSTAR":0.0012051,"MEAN_MOTION_DOT":0.00035512,"MEAN_MOTION_DDOT":0},{"OBJECT_NAME":"STARLINK-35657","OBJECT_ID":"2025-257V","EPOCH":"2026-03-28T12:38:16.310688","MEAN_MOTION":15.30200805,"ECCENTRICITY":0.0001182,"INCLINATION":53.1591,"RA_OF_ASC_NODE":129.7993,"ARG_OF_PERICENTER":86.8221,"MEAN_ANOMALY":273.2915,"EPHEMERIS_TYPE":0,"CLASSIFICATION_TYPE":"U","NORAD_CAT_ID":66399,"ELEMENT_SET_NO":999,"REV_AT_EPOCH":2260,"BSTAR":0.0009207,"MEAN_MOTION_DOT":0.00027009,"MEAN_MOTION_DDOT":0},{"OBJECT_NAME":"STARLINK-35667","OBJECT_ID":"2025-257W","EPOCH":"2026-03-28T09:11:55.815360","MEAN_MOTION":15.30212511,"ECCENTRICITY":0.0001171,"INCLINATION":53.1602,"RA_OF_ASC_NODE":130.3263,"ARG_OF_PERICENTER":77.9068,"MEAN_ANOMALY":282.2064,"EPHEMERIS_TYPE":0,"CLASSIFICATION_TYPE":"U","NORAD_CAT_ID":66400,"ELEMENT_SET_NO":999,"REV_AT_EPOCH":2259,"BSTAR":0.00098178,"MEAN_MOTION_DOT":0.00028843,"MEAN_MOTION_DDOT":0},{"OBJECT_NAME":"STARLINK-35668","OBJECT_ID":"2025-257X","EPOCH":"2026-03-28T12:12:26.287776","MEAN_MOTION":15.3020422,"ECCENTRICITY":0.000114,"INCLINATION":53.1595,"RA_OF_ASC_NODE":129.6837,"ARG_OF_PERICENTER":84.8005,"MEAN_ANOMALY":275.3126,"EPHEMERIS_TYPE":0,"CLASSIFICATION_TYPE":"U","NORAD_CAT_ID":66401,"ELEMENT_SET_NO":999,"REV_AT_EPOCH":2261,"BSTAR":0.00058996,"MEAN_MOTION_DOT":0.00017156,"MEAN_MOTION_DDOT":0}]
